[
    {
        "OBJECT_NAME": "STARLINK-5393",
        "OBJECT_ID": "2022-177N",
        "EPOCH": "2023-11-14T21:53:29.001408",
        "MEAN_MOTION": 15.02535411,
        "ECCENTRICITY": 0.0001256,
        "INCLINATION": 43.0038,
        "RA_OF_ASC_NODE": 36.4653,
        "ARG_OF_PERICENTER": 260.1686,
        "MEAN_ANOMALY": 99.9015,
        "EPHEMERIS_TYPE": 0,
        "CLASSIFICATION_TYPE": "U",
        "NORAD_CAT_ID": 54832,
        "ELEMENT_SET_NO": 999,
        "REV_AT_EPOCH": 4987,
        "BSTAR": 0.00010009,
        "MEAN_MOTION_DOT": 1.149e-5,
        "MEAN_MOTION_DDOT": 0
    },
    {
        "OBJECT_NAME": "STARLINK-5391",
        "OBJECT_ID": "2022-177P",
        "EPOCH": "2023-11-14T22:31:17.905152",
        "MEAN_MOTION": 15.02537231,
        "ECCENTRICITY": 0.0001356,
        "INCLINATION": 43.0042,
        "RA_OF_ASC_NODE": 48.8,
        "ARG_OF_PERICENTER": 266.7617,
        "MEAN_ANOMALY": 93.307,
        "EPHEMERIS_TYPE": 0,
        "CLASSIFICATION_TYPE": "U",
        "NORAD_CAT_ID": 54833,
        "ELEMENT_SET_NO": 999,
        "REV_AT_EPOCH": 4973,
        "BSTAR": 0.00021836,
        "MEAN_MOTION_DOT": 2.747e-5,
        "MEAN_MOTION_DDOT": 0
    },
    {
        "OBJECT_NAME": "STARLINK-5386",
        "OBJECT_ID": "2022-177Q",
        "EPOCH": "2023-11-14T17:37:43.351392",
        "MEAN_MOTION": 15.02538181,
        "ECCENTRICITY": 0.0001155,
        "INCLINATION": 43.0043,
        "RA_OF_ASC_NODE": 49.8503,
        "ARG_OF_PERICENTER": 281.948,
        "MEAN_ANOMALY": 78.1233,
        "EPHEMERIS_TYPE": 0,
        "CLASSIFICATION_TYPE": "U",
        "NORAD_CAT_ID": 54834,
        "ELEMENT_SET_NO": 999,
        "REV_AT_EPOCH": 4971,
        "BSTAR": 3.4188e-5,
        "MEAN_MOTION_DOT": 2.58e-6,
        "MEAN_MOTION_DDOT": 0
    },
    {
        "OBJECT_NAME": "STARLINK-5389",
        "OBJECT_ID": "2022-177R",
        "EPOCH": "2023-11-14T16:09:58.939776",
        "MEAN_MOTION": 15.02541891,
        "ECCENTRICITY": 0.0001325,
        "INCLINATION": 43.0047,
        "RA_OF_ASC_NODE": 50.2542,
        "ARG_OF_PERICENTER": 269.3528,
        "MEAN_ANOMALY": 90.7162,
        "EPHEMERIS_TYPE": 0,
        "CLASSIFICATION_TYPE": "U",
        "NORAD_CAT_ID": 54835,
        "ELEMENT_SET_NO": 999,
        "REV_AT_EPOCH": 4969,
        "BSTAR": 0.00028559,
        "MEAN_MOTION_DOT": 3.657e-5,
        "MEAN_MOTION_DDOT": 0
    },
    {
        "OBJECT_NAME": "STARLINK-5384",
        "OBJECT_ID": "2022-177S",
        "EPOCH": "2023-11-14T17:32:55.159872",
        "MEAN_MOTION": 15.02535807,
        "ECCENTRICITY": 0.0001117,
        "INCLINATION": 43.004,
        "RA_OF_ASC_NODE": 49.8241,
        "ARG_OF_PERICENTER": 280.458,
        "MEAN_ANOMALY": 79.6137,
        "EPHEMERIS_TYPE": 0,
        "CLASSIFICATION_TYPE": "U",
        "NORAD_CAT_ID": 54836,
        "ELEMENT_SET_NO": 999,
        "REV_AT_EPOCH": 4971,
        "BSTAR": -0.0001841,
        "MEAN_MOTION_DOT": -2.689e-5,
        "MEAN_MOTION_DDOT": 0
    },
    {
        "OBJECT_NAME": "STARLINK-5369",
        "OBJECT_ID": "2022-177T",
        "EPOCH": "2023-11-14T17:36:07.311744",
        "MEAN_MOTION": 15.0254631,
        "ECCENTRICITY": 0.0001319,
        "INCLINATION": 43.0048,
        "RA_OF_ASC_NODE": 49.842,
        "ARG_OF_PERICENTER": 267.5308,
        "MEAN_ANOMALY": 92.5384,
        "EPHEMERIS_TYPE": 0,
        "CLASSIFICATION_TYPE": "U",
        "NORAD_CAT_ID": 54837,
        "ELEMENT_SET_NO": 999,
        "REV_AT_EPOCH": 4872,
        "BSTAR": 0.00041694,
        "MEAN_MOTION_DOT": 5.434e-5,
        "MEAN_MOTION_DDOT": 0
    },
    {
        "OBJECT_NAME": "STARLINK-5372",
        "OBJECT_ID": "2022-177U",
        "EPOCH": "2023-11-14T17:23:20.272416",
        "MEAN_MOTION": 15.02562356,
        "ECCENTRICITY": 0.0001242,
        "INCLINATION": 43.0038,
        "RA_OF_ASC_NODE": 49.774,
        "ARG_OF_PERICENTER": 282.3056,
        "MEAN_ANOMALY": 77.7648,
        "EPHEMERIS_TYPE": 0,
        "CLASSIFICATION_TYPE": "U",
        "NORAD_CAT_ID": 54838,
        "ELEMENT_SET_NO": 999,
        "REV_AT_EPOCH": 4970,
        "BSTAR": 0.00044046,
        "MEAN_MOTION_DOT": 5.755e-5,
        "MEAN_MOTION_DDOT": 0
    },
    {
        "OBJECT_NAME": "STARLINK-5110",
        "OBJECT_ID": "2022-177V",
        "EPOCH": "2023-11-14T23:38:15.728928",
        "MEAN_MOTION": 15.02533735,
        "ECCENTRICITY": 7.51e-5,
        "INCLINATION": 43.0031,
        "RA_OF_ASC_NODE": 48.2891,
        "ARG_OF_PERICENTER": 293.1931,
        "MEAN_ANOMALY": 66.8832,
        "EPHEMERIS_TYPE": 0,
        "CLASSIFICATION_TYPE": "U",
        "NORAD_CAT_ID": 54839,
        "ELEMENT_SET_NO": 999,
        "REV_AT_EPOCH": 4876,
        "BSTAR": 0.00039786,
        "MEAN_MOTION_DOT": 5.175e-5,
        "MEAN_MOTION_DDOT": 0
    },
    {
        "OBJECT_NAME": "STARLINK-5368",
        "OBJECT_ID": "2022-177W",
        "EPOCH": "2023-11-14T17:12:08.629920",
        "MEAN_MOTION": 15.0254601,
        "ECCENTRICITY": 0.0001258,
        "INCLINATION": 43.0047,
        "RA_OF_ASC_NODE": 49.7164,
        "ARG_OF_PERICENTER": 266.1724,
        "MEAN_ANOMALY": 93.8974,
        "EPHEMERIS_TYPE": 0,
        "CLASSIFICATION_TYPE": "U",
        "NORAD_CAT_ID": 54840,
        "ELEMENT_SET_NO": 999,
        "REV_AT_EPOCH": 4970,
        "BSTAR": 3.0539e-5,
        "MEAN_MOTION_DOT": 2.09e-6,
        "MEAN_MOTION_DDOT": 0
    },
    {
        "OBJECT_NAME": "STARLINK-4659",
        "OBJECT_ID": "2022-177X",
        "EPOCH": "2023-11-14T17:28:08.243616",
        "MEAN_MOTION": 15.0255424,
        "ECCENTRICITY": 0.0001235,
        "INCLINATION": 43.0042,
        "RA_OF_ASC_NODE": 49.7994,
        "ARG_OF_PERICENTER": 270.9552,
        "MEAN_ANOMALY": 89.1149,
        "EPHEMERIS_TYPE": 0,
        "CLASSIFICATION_TYPE": "U",
        "NORAD_CAT_ID": 54841,
        "ELEMENT_SET_NO": 999,
        "REV_AT_EPOCH": 4970,
        "BSTAR": 0.0013222,
        "MEAN_MOTION_DOT": 0.00017711,
        "MEAN_MOTION_DDOT": 0
    },
    {
        "OBJECT_NAME": "STARLINK-5387",
        "OBJECT_ID": "2022-177Y",
        "EPOCH": "2023-11-14T17:02:33.334656",
        "MEAN_MOTION": 15.02545341,
        "ECCENTRICITY": 0.0001163,
        "INCLINATION": 43.0044,
        "RA_OF_ASC_NODE": 49.6654,
        "ARG_OF_PERICENTER": 264.9356,
        "MEAN_ANOMALY": 95.1353,
        "EPHEMERIS_TYPE": 0,
        "CLASSIFICATION_TYPE": "U",
        "NORAD_CAT_ID": 54842,
        "ELEMENT_SET_NO": 999,
        "REV_AT_EPOCH": 4970,
        "BSTAR": 0.00081727,
        "MEAN_MOTION_DOT": 0.00010856,
        "MEAN_MOTION_DDOT": 0
    },
    {
        "OBJECT_NAME": "STARLINK-5304",
        "OBJECT_ID": "2022-177Z",
        "EPOCH": "2023-11-14T15:44:24.874080",
        "MEAN_MOTION": 15.02535609,
        "ECCENTRICITY": 0.0001127,
        "INCLINATION": 43.0039,
        "RA_OF_ASC_NODE": 50.12,
        "ARG_OF_PERICENTER": 266.3526,
        "MEAN_ANOMALY": 93.7187,
        "EPHEMERIS_TYPE": 0,
        "CLASSIFICATION_TYPE": "U",
        "NORAD_CAT_ID": 54843,
        "ELEMENT_SET_NO": 999,
        "REV_AT_EPOCH": 4969,
        "BSTAR": 3.4331e-5,
        "MEAN_MOTION_DOT": 2.6e-6,
        "MEAN_MOTION_DDOT": 0
    },
    {
        "OBJECT_NAME": "STARLINK-5388",
        "OBJECT_ID": "2022-177AA",
        "EPOCH": "2023-11-14T16:54:33.603840",
        "MEAN_MOTION": 15.02542635,
        "ECCENTRICITY": 0.0001275,
        "INCLINATION": 43.004,
        "RA_OF_ASC_NODE": 49.5987,
        "ARG_OF_PERICENTER": 271.9296,
        "MEAN_ANOMALY": 88.14,
        "EPHEMERIS_TYPE": 0,
        "CLASSIFICATION_TYPE": "U",
        "NORAD_CAT_ID": 54844,
        "ELEMENT_SET_NO": 999,
        "REV_AT_EPOCH": 4970,
        "BSTAR": 0.00030054,
        "MEAN_MOTION_DOT": 3.859e-5,
        "MEAN_MOTION_DDOT": 0
    }
]
