0 STARLINK-5393
1 54832U 22177N   23318.91214122  .00001149  00000-0  10009-3 0  9998
2 54832  43.0038  36.4653 0001256 260.1686  99.9015 15.02535411 49870
0 STARLINK-5391
1 54833U 22177P   23318.93840168  .00002747  00000-0  21836-3 0  9991
2 54833  43.0042  48.8000 0001356 266.7617  93.3070 15.02537231 49732
0 STARLINK-5386
1 54834U 22177Q   23318.73452953  .00000258  00000-0  34188-4 0  9991
2 54834  43.0043  49.8503 0001155 281.9480  78.1233 15.02538181 49712
0 STARLINK-5389
1 54835U 22177R   23318.67359884  .00003657  00000-0  28559-3 0  9994
2 54835  43.0047  50.2542 0001325 269.3528  90.7162 15.02541891 49698
0 STARLINK-5384
1 54836U 22177S   23318.73119398 -.00002689  00000-0 -18410-3 0  9997
2 54836  43.0040  49.8241 0001117 280.4580  79.6137 15.02535807 49714
0 STARLINK-5369
1 54837U 22177T   23318.73341796  .00005434  00000-0  41694-3 0  9996
2 54837  43.0048  49.8420 0001319 267.5308  92.5384 15.02546310 48729
0 STARLINK-5372
1 54838U 22177U   23318.72454019  .00005755  00000-0  44046-3 0  9999
2 54838  43.0038  49.7740 0001242 282.3056  77.7648 15.02562356 49708
0 STARLINK-5110
1 54839U 22177V   23318.98490427  .00005175  00000-0  39786-3 0  9992
2 54839  43.0031  48.2891 0000751 293.1931  66.8832 15.02533735 48767
0 STARLINK-5368
1 54840U 22177W   23318.71676655  .00000209  00000-0  30539-4 0  9995
2 54840  43.0047  49.7164 0001258 266.1724  93.8974 15.02546010 49700
0 STARLINK-4659
1 54841U 22177X   23318.72787319  .00017711  00000-0  13222-2 0  9991
2 54841  43.0042  49.7994 0001235 270.9552  89.1149 15.02554240 49700
0 STARLINK-5387
1 54842U 22177Y   23318.71010804  .00010856  00000-0  81727-3 0  9998
2 54842  43.0044  49.6654 0001163 264.9356  95.1353 15.02545341 49706
0 STARLINK-5304
1 54843U 22177Z   23318.65584345  .00000260  00000-0  34331-4 0  9996
2 54843  43.0039  50.1200 0001127 266.3526  93.7187 15.02535609 49693
0 STARLINK-5388
1 54844U 22177AA  23318.70455560  .00003859  00000-0  30054-3 0  9993
2 54844  43.0040  49.5987 0001275 271.9296  88.1400 15.02542635 49705
